ORBCOMM FM05            
1 25117U 97084F   24327.33636244  .00004082  00000+0  12118-2 0  9991
2 25117  45.0147 280.2252 0002928 292.6812  67.3729 14.44493148410686
ORBCOMM FM06            
1 25118U 97084G   24327.83853934  .00004657  00000+0  13717-2 0  9998
2 25118  45.0139 277.8202 0002326 311.4770  68.2815 14.44663010411673
ORBCOMM FM07            
1 25119U 97084H   24327.90909367  .00004997  00000+0  14726-2 0  9997
2 25119  45.0134 278.1663 0003318 281.7287  78.3191 14.44534358411679
ORBCOMM FM03            
1 25158U 98007B   24327.85791674  .00003472  00000+0  12858-2 0  9991
2 25158 107.9665  72.0122 0048824 249.9719 109.6160 14.33416576394467
ORBCOMM FM04            
1 25159U 98007C   24327.73996133  .00003141  00000+0  11641-2 0  9998
2 25159 107.9651  74.8459 0044516 247.9479 111.6928 14.33688311394622
ORBCOMM FM17            
1 25413U 98046A   24327.87016648  .00002091  00000+0  78836-3 0  9996
2 25413  44.9928 150.7428 0002283 237.4230 122.6396 14.34228020373543
ORBCOMM FM18            
1 25414U 98046B   24327.60404782  .00003458  00000+0  11941-2 0  9999
2 25414  44.9928  74.6792 0004723 293.7450  66.2903 14.37359034374510
ORBCOMM FM19            
1 25415U 98046C   24327.96223681  .00003676  00000+0  12705-2 0  9997
2 25415  44.9943  74.6642 0003933 282.2046 189.1799 14.37189231374527
