<?xml version="1.0" encoding="UTF-8"?>
<ndm xmlns:xsi="http://www.w3.org/2001/XMLSchema-instance" xsi:noNamespaceSchemaLocation="https://sanaregistry.org/r/ndmxml_unqualified/ndmxml-2.0.0-master-2.0.xsd">
<omm id="CCSDS_OMM_VERS" version="2.0">
<header><CREATION_DATE/><ORIGINATOR/></header><body><segment><metadata><OBJECT_NAME>ORBCOMM FM05</OBJECT_NAME><OBJECT_ID>1997-084F</OBJECT_ID><CENTER_NAME>EARTH</CENTER_NAME><REF_FRAME>TEME</REF_FRAME><TIME_SYSTEM>UTC</TIME_SYSTEM><MEAN_ELEMENT_THEORY>SGP4</MEAN_ELEMENT_THEORY></metadata><data><meanElements><EPOCH>2024-11-22T08:04:21.714816</EPOCH><MEAN_MOTION>14.44493148</MEAN_MOTION><ECCENTRICITY>.0002928</ECCENTRICITY><INCLINATION>45.0147</INCLINATION><RA_OF_ASC_NODE>280.2252</RA_OF_ASC_NODE><ARG_OF_PERICENTER>292.6812</ARG_OF_PERICENTER><MEAN_ANOMALY>67.3729</MEAN_ANOMALY></meanElements><tleParameters><EPHEMERIS_TYPE>0</EPHEMERIS_TYPE><CLASSIFICATION_TYPE>U</CLASSIFICATION_TYPE><NORAD_CAT_ID>25117</NORAD_CAT_ID><ELEMENT_SET_NO>999</ELEMENT_SET_NO><REV_AT_EPOCH>41068</REV_AT_EPOCH><BSTAR>.12118E-2</BSTAR><MEAN_MOTION_DOT>.4082E-4</MEAN_MOTION_DOT><MEAN_MOTION_DDOT>0</MEAN_MOTION_DDOT></tleParameters></data></segment></body></omm>
<omm id="CCSDS_OMM_VERS" version="2.0">
<header><CREATION_DATE/><ORIGINATOR/></header><body><segment><metadata><OBJECT_NAME>ORBCOMM FM06</OBJECT_NAME><OBJECT_ID>1997-084G</OBJECT_ID><CENTER_NAME>EARTH</CENTER_NAME><REF_FRAME>TEME</REF_FRAME><TIME_SYSTEM>UTC</TIME_SYSTEM><MEAN_ELEMENT_THEORY>SGP4</MEAN_ELEMENT_THEORY></metadata><data><meanElements><EPOCH>2024-11-22T20:07:29.798976</EPOCH><MEAN_MOTION>14.44663010</MEAN_MOTION><ECCENTRICITY>.0002326</ECCENTRICITY><INCLINATION>45.0139</INCLINATION><RA_OF_ASC_NODE>277.8202</RA_OF_ASC_NODE><ARG_OF_PERICENTER>311.4770</ARG_OF_PERICENTER><MEAN_ANOMALY>68.2815</MEAN_ANOMALY></meanElements><tleParameters><EPHEMERIS_TYPE>0</EPHEMERIS_TYPE><CLASSIFICATION_TYPE>U</CLASSIFICATION_TYPE><NORAD_CAT_ID>25118</NORAD_CAT_ID><ELEMENT_SET_NO>999</ELEMENT_SET_NO><REV_AT_EPOCH>41167</REV_AT_EPOCH><BSTAR>.13717E-2</BSTAR><MEAN_MOTION_DOT>.4657E-4</MEAN_MOTION_DOT><MEAN_MOTION_DDOT>0</MEAN_MOTION_DDOT></tleParameters></data></segment></body></omm>
<omm id="CCSDS_OMM_VERS" version="2.0">
<header><CREATION_DATE/><ORIGINATOR/></header><body><segment><metadata><OBJECT_NAME>ORBCOMM FM07</OBJECT_NAME><OBJECT_ID>1997-084H</OBJECT_ID><CENTER_NAME>EARTH</CENTER_NAME><REF_FRAME>TEME</REF_FRAME><TIME_SYSTEM>UTC</TIME_SYSTEM><MEAN_ELEMENT_THEORY>SGP4</MEAN_ELEMENT_THEORY></metadata><data><meanElements><EPOCH>2024-11-22T21:49:05.693088</EPOCH><MEAN_MOTION>14.44534358</MEAN_MOTION><ECCENTRICITY>.0003318</ECCENTRICITY><INCLINATION>45.0134</INCLINATION><RA_OF_ASC_NODE>278.1663</RA_OF_ASC_NODE><ARG_OF_PERICENTER>281.7287</ARG_OF_PERICENTER><MEAN_ANOMALY>78.3191</MEAN_ANOMALY></meanElements><tleParameters><EPHEMERIS_TYPE>0</EPHEMERIS_TYPE><CLASSIFICATION_TYPE>U</CLASSIFICATION_TYPE><NORAD_CAT_ID>25119</NORAD_CAT_ID><ELEMENT_SET_NO>999</ELEMENT_SET_NO><REV_AT_EPOCH>41167</REV_AT_EPOCH><BSTAR>.14726E-2</BSTAR><MEAN_MOTION_DOT>.4997E-4</MEAN_MOTION_DOT><MEAN_MOTION_DDOT>0</MEAN_MOTION_DDOT></tleParameters></data></segment></body></omm>
<omm id="CCSDS_OMM_VERS" version="2.0">
<header><CREATION_DATE/><ORIGINATOR/></header><body><segment><metadata><OBJECT_NAME>ORBCOMM FM03</OBJECT_NAME><OBJECT_ID>1998-007B</OBJECT_ID><CENTER_NAME>EARTH</CENTER_NAME><REF_FRAME>TEME</REF_FRAME><TIME_SYSTEM>UTC</TIME_SYSTEM><MEAN_ELEMENT_THEORY>SGP4</MEAN_ELEMENT_THEORY></metadata><data><meanElements><EPOCH>2024-11-22T20:35:24.006336</EPOCH><MEAN_MOTION>14.33416576</MEAN_MOTION><ECCENTRICITY>.0048824</ECCENTRICITY><INCLINATION>107.9665</INCLINATION><RA_OF_ASC_NODE>72.0122</RA_OF_ASC_NODE><ARG_OF_PERICENTER>249.9719</ARG_OF_PERICENTER><MEAN_ANOMALY>109.6160</MEAN_ANOMALY></meanElements><tleParameters><EPHEMERIS_TYPE>0</EPHEMERIS_TYPE><CLASSIFICATION_TYPE>U</CLASSIFICATION_TYPE><NORAD_CAT_ID>25158</NORAD_CAT_ID><ELEMENT_SET_NO>999</ELEMENT_SET_NO><REV_AT_EPOCH>39446</REV_AT_EPOCH><BSTAR>.12858E-2</BSTAR><MEAN_MOTION_DOT>.3472E-4</MEAN_MOTION_DOT><MEAN_MOTION_DDOT>0</MEAN_MOTION_DDOT></tleParameters></data></segment></body></omm>
<omm id="CCSDS_OMM_VERS" version="2.0">
<header><CREATION_DATE/><ORIGINATOR/></header><body><segment><metadata><OBJECT_NAME>ORBCOMM FM04</OBJECT_NAME><OBJECT_ID>1998-007C</OBJECT_ID><CENTER_NAME>EARTH</CENTER_NAME><REF_FRAME>TEME</REF_FRAME><TIME_SYSTEM>UTC</TIME_SYSTEM><MEAN_ELEMENT_THEORY>SGP4</MEAN_ELEMENT_THEORY></metadata><data><meanElements><EPOCH>2024-11-22T17:45:32.658912</EPOCH><MEAN_MOTION>14.33688311</MEAN_MOTION><ECCENTRICITY>.0044516</ECCENTRICITY><INCLINATION>107.9651</INCLINATION><RA_OF_ASC_NODE>74.8459</RA_OF_ASC_NODE><ARG_OF_PERICENTER>247.9479</ARG_OF_PERICENTER><MEAN_ANOMALY>111.6928</MEAN_ANOMALY></meanElements><tleParameters><EPHEMERIS_TYPE>0</EPHEMERIS_TYPE><CLASSIFICATION_TYPE>U</CLASSIFICATION_TYPE><NORAD_CAT_ID>25159</NORAD_CAT_ID><ELEMENT_SET_NO>999</ELEMENT_SET_NO><REV_AT_EPOCH>39462</REV_AT_EPOCH><BSTAR>.11641E-2</BSTAR><MEAN_MOTION_DOT>.3141E-4</MEAN_MOTION_DOT><MEAN_MOTION_DDOT>0</MEAN_MOTION_DDOT></tleParameters></data></segment></body></omm>
<omm id="CCSDS_OMM_VERS" version="2.0">
<header><CREATION_DATE/><ORIGINATOR/></header><body><segment><metadata><OBJECT_NAME>ORBCOMM FM17</OBJECT_NAME><OBJECT_ID>1998-046A</OBJECT_ID><CENTER_NAME>EARTH</CENTER_NAME><REF_FRAME>TEME</REF_FRAME><TIME_SYSTEM>UTC</TIME_SYSTEM><MEAN_ELEMENT_THEORY>SGP4</MEAN_ELEMENT_THEORY></metadata><data><meanElements><EPOCH>2024-11-22T20:53:02.383872</EPOCH><MEAN_MOTION>14.34228020</MEAN_MOTION><ECCENTRICITY>.0002283</ECCENTRICITY><INCLINATION>44.9928</INCLINATION><RA_OF_ASC_NODE>150.7428</RA_OF_ASC_NODE><ARG_OF_PERICENTER>237.4230</ARG_OF_PERICENTER><MEAN_ANOMALY>122.6396</MEAN_ANOMALY></meanElements><tleParameters><EPHEMERIS_TYPE>0</EPHEMERIS_TYPE><CLASSIFICATION_TYPE>U</CLASSIFICATION_TYPE><NORAD_CAT_ID>25413</NORAD_CAT_ID><ELEMENT_SET_NO>999</ELEMENT_SET_NO><REV_AT_EPOCH>37354</REV_AT_EPOCH><BSTAR>.78836E-3</BSTAR><MEAN_MOTION_DOT>.2091E-4</MEAN_MOTION_DOT><MEAN_MOTION_DDOT>0</MEAN_MOTION_DDOT></tleParameters></data></segment></body></omm>
<omm id="CCSDS_OMM_VERS" version="2.0">
<header><CREATION_DATE/><ORIGINATOR/></header><body><segment><metadata><OBJECT_NAME>ORBCOMM FM18</OBJECT_NAME><OBJECT_ID>1998-046B</OBJECT_ID><CENTER_NAME>EARTH</CENTER_NAME><REF_FRAME>TEME</REF_FRAME><TIME_SYSTEM>UTC</TIME_SYSTEM><MEAN_ELEMENT_THEORY>SGP4</MEAN_ELEMENT_THEORY></metadata><data><meanElements><EPOCH>2024-11-22T14:29:49.731648</EPOCH><MEAN_MOTION>14.37359034</MEAN_MOTION><ECCENTRICITY>.0004723</ECCENTRICITY><INCLINATION>44.9928</INCLINATION><RA_OF_ASC_NODE>74.6792</RA_OF_ASC_NODE><ARG_OF_PERICENTER>293.7450</ARG_OF_PERICENTER><MEAN_ANOMALY>66.2903</MEAN_ANOMALY></meanElements><tleParameters><EPHEMERIS_TYPE>0</EPHEMERIS_TYPE><CLASSIFICATION_TYPE>U</CLASSIFICATION_TYPE><NORAD_CAT_ID>25414</NORAD_CAT_ID><ELEMENT_SET_NO>999</ELEMENT_SET_NO><REV_AT_EPOCH>37451</REV_AT_EPOCH><BSTAR>.11941E-2</BSTAR><MEAN_MOTION_DOT>.3458E-4</MEAN_MOTION_DOT><MEAN_MOTION_DDOT>0</MEAN_MOTION_DDOT></tleParameters></data></segment></body></omm>
<omm id="CCSDS_OMM_VERS" version="2.0">
<header><CREATION_DATE/><ORIGINATOR/></header><body><segment><metadata><OBJECT_NAME>ORBCOMM FM19</OBJECT_NAME><OBJECT_ID>1998-046C</OBJECT_ID><CENTER_NAME>EARTH</CENTER_NAME><REF_FRAME>TEME</REF_FRAME><TIME_SYSTEM>UTC</TIME_SYSTEM><MEAN_ELEMENT_THEORY>SGP4</MEAN_ELEMENT_THEORY></metadata><data><meanElements><EPOCH>2024-11-22T23:05:37.260384</EPOCH><MEAN_MOTION>14.37189231</MEAN_MOTION><ECCENTRICITY>.0003933</ECCENTRICITY><INCLINATION>44.9943</INCLINATION><RA_OF_ASC_NODE>74.6642</RA_OF_ASC_NODE><ARG_OF_PERICENTER>282.2046</ARG_OF_PERICENTER><MEAN_ANOMALY>189.1799</MEAN_ANOMALY></meanElements><tleParameters><EPHEMERIS_TYPE>0</EPHEMERIS_TYPE><CLASSIFICATION_TYPE>U</CLASSIFICATION_TYPE><NORAD_CAT_ID>25415</NORAD_CAT_ID><ELEMENT_SET_NO>999</ELEMENT_SET_NO><REV_AT_EPOCH>37452</REV_AT_EPOCH><BSTAR>.12705E-2</BSTAR><MEAN_MOTION_DOT>.3676E-4</MEAN_MOTION_DOT><MEAN_MOTION_DDOT>0</MEAN_MOTION_DDOT></tleParameters></data></segment></body></omm>

</ndm>
